"";"city";"country";"type";"name";"lat";"lon"
"9";"Belleville";"Canada";"epoch";"Belleville";"44.2436328";"-77.3607597"
"10";"Brampton";"Canada";"epoch";"Brampton";"43.6858146";"-79.7599337"
"11";"Brandon";"Canada";"epoch";"Brandon";"49.8511143";"-99.9608924"
"12";"Brantford";"Canada";"epoch";"Brantford";"43.1554354";"-80.2665916"
"15";"Calgary";"Canada";"epoch";"Calgary";"51.02532675";"-114.0498685"
"18";"Charlottetown";"Canada";"epoch";"Charlottetown";"46.234953";"-63.132935"
"19";"Chatham";"Canada";"epoch";"Chatham";"42.405207";"-82.191467"
"21";"Drummondville";"Canada";"epoch";"Drummondville";"45.8864303";"-72.5018764"
"24";"Fredericton";"Canada";"epoch";"Fredericton";"45.966425";"-66.645813"
"26";"Glace Bay";"Canada";"epoch";"Glace Bay";"46.1949393";"-59.9561999"
"27";"Guelph";"Canada";"epoch";"Guelph";"43.533783";"-80.2306337"
"28";"Halifax";"Canada";"epoch";"Halifax";"44.8543667";"-63.137798"
"29";"Hamilton";"Canada";"epoch";"Hamilton";"43.2425289";"-79.9470423"
"30";"Hull";"Canada";"epoch";"Hull";"45.4371637";"-75.7241942"
"32";"Kamloops";"Canada";"epoch";"Kamloops";"50.6758269";"-120.3394159"
"33";"Kelowna";"Canada";"epoch";"Kelowna";"49.889326";"-119.498291"
"34";"Kingston";"Canada";"epoch";"Kingston";"44.3054151";"-76.4283781"
"35";"Kitchener";"Canada";"epoch";"Kitchener";"43.453168";"-80.494423"
"36";"Lachine";"Canada";"epoch";"Lachine";"45.4486969";"-73.7110536"
"38";"Lethbridge";"Canada";"epoch";"Lethbridge";"49.694285";"-112.851562"
"39";"Levis";"Canada";"epoch";"Levis";"46.7910096";"-71.1753274"
"40";"London";"Canada";"epoch";"London";"42.9537654";"-81.2291529"
"43";"Moncton";"Canada";"epoch";"Moncton";"46.097995";"-64.80011"
"45";"Nanaimo";"Canada";"epoch";"Nanaimo";"49.1637594";"-123.9379719"
"47";"New Westminster";"Canada";"epoch";"New Westminster";"49.205728";"-122.9108651"
"48";"Niagara Falls";"Canada";"epoch";"Niagara Falls";"43.100983";"-79.115295"
"50";"Oakville";"Canada";"epoch";"Oakville";"43.447436";"-79.666672"
"51";"Oshawa";"Canada";"epoch";"Oshawa";"43.91768";"-78.862953"
"53";"Peterborough";"Canada";"epoch";"Peterborough";"44.3048009";"-78.3199496"
"55";"Regina";"Canada";"epoch";"Regina";"50.44876";"-104.61731"
"58";"Saguenay";"Canada";"epoch";"Saguenay";"48.405959";"-71.069183"
"59";"Saint Boniface";"Canada";"epoch";"Saint Boniface";"46.505246";"-72.828712"
"60";"Saint Catharines";"Canada";"epoch";"Saint Catharines";"43.167376";"-79.241638"
"64";"Saint-Hyacinthe";"Canada";"epoch";"Saint-Hyacinthe";"45.627484";"-72.940636"
"65";"Saint-Jerome";"Canada";"epoch";"Saint-Jerome";"45.775426";"-74.013176"
"66";"Saint-Thomas";"Canada";"epoch";"Saint-Thomas";"42.7792897";"-81.1832518"
"67";"Sarnia";"Canada";"epoch";"Sarnia";"42.992595";"-82.380981"
"68";"Saskatoon";"Canada";"epoch";"Saskatoon";"52.131802";"-106.660767"
"69";"Sault Sainte Marie";"Canada";"epoch";"Sault Sainte Marie";"46.52391";"-84.320068"
"71";"Sherbrooke";"Canada";"epoch";"Sherbrooke";"45.403271";"-71.889038"
"72";"Sorel";"Canada";"epoch";"Sorel";"46.044404";"-73.104744"
"73";"St. Johns";"Canada";"epoch";"St. Johns";"47.561701";"-52.715149"
"74";"Stratford";"Canada";"epoch";"Stratford";"46.2189935";"-63.08765341"
"75";"Sudbury";"Canada";"epoch";"Sudbury";"46.49272";"-80.991211"
"77";"Sydney";"Canada";"epoch";"Sydney";"46.137977";"-60.194092"
"79";"Thunder Bay";"Canada";"epoch";"Thunder Bay";"48.406414";"-89.259796"
"80";"Timmins";"Canada";"epoch";"Timmins";"48.477473";"-81.330414"
"81";"Trois-Rivieres";"Canada";"epoch";"Trois-Rivieres";"46.3507999";"-72.5571257"
"82";"Verdun";"Canada";"epoch";"Verdun";"45.4603893";"-73.5651925"
"83";"Victoria";"Canada";"epoch";"Victoria";"48.4283182";"-123.3649533"
"84";"Waterloo";"Canada";"epoch";"Waterloo";"43.466874";"-80.524635"
"86";"Windsor";"Canada";"epoch";"Windsor";"42.30423";"-83.029861"
"96";"Albacete";"Spain";"epoch";"Albacete";"38.9890121";"-1.8548699"
"97";"Alcoi";"Spain";"epoch";"Alcoi";"38.7005237";"-0.479220415"
"98";"Algeciras";"Spain";"epoch";"Algeciras";"36.1310804";"-5.4487055"
"99";"Alicante";"Spain";"epoch";"Alicante";"38.353738";"-0.4901846"
"100";"Almeria";"Spain";"epoch";"Almeria";"36.8414197";"-2.4628135"
"101";"Antequera";"Spain";"epoch";"Antequera";"37.0183652";"-4.5596649"
"103";"Badajoz";"Spain";"epoch";"Badajoz";"38.8780585";"-6.9702048"
"104";"Barakaldo";"Spain";"epoch";"Barakaldo";"43.29548";"-2.9900933"
"105";"Burgos";"Spain";"epoch";"Burgos";"42.343926";"-3.696977"
"106";"Caceres";"Spain";"epoch";"Caceres";"39.4745175";"-6.3716761"
"107";"Cadiz";"Spain";"epoch";"Cadiz";"36.5298292";"-6.2925679"
"108";"Cartagena";"Spain";"epoch";"Cartagena";"37.6267868";"-1.0006184"
"109";"Castello de la Plana";"Spain";"epoch";"Castello de la Plana";"39.9860347";"-0.0377354"
"110";"Ceuta";"Spain";"epoch";"Ceuta";"35.888361";"-5.304138"
"111";"Ciudad Real";"Spain";"epoch";"Ciudad Real";"38.95975095";"-3.882828339"
"112";"Cordoba";"Spain";"epoch";"Cordoba";"37.8845813";"-4.7760138"
"113";"Coruna";"Spain";"epoch";"Coruna";"43.3712091";"-8.3958768"
"114";"Donostia-San Sebastian";"Spain";"epoch";"Donostia-San Sebastian";"43.3224219";"-1.9838889"
"115";"Ecija";"Spain";"epoch";"Ecija";"37.5406007";"-5.079589"
"117";"Elche";"Spain";"epoch";"Elche";"38.2653181";"-0.6988488"
"119";"Ferrol";"Spain";"epoch";"Ferrol";"43.4846862";"-8.233162"
"120";"Gijon";"Spain";"epoch";"Gijon";"43.5450394";"-5.6626443"
"121";"Girona";"Spain";"epoch";"Girona";"41.9793006";"2.8199439"
"122";"Granada";"Spain";"epoch";"Granada";"37.183054";"-3.6021928"
"123";"Huelva";"Spain";"epoch";"Huelva";"37.2575874";"-6.9484945"
"124";"Iruna";"Spain";"epoch";"Iruna";"42.8184538";"-1.6442556"
"125";"Jaen";"Spain";"epoch";"Jaen";"37.7728858";"-3.7883289"
"126";"Jerez de la Frontera";"Spain";"epoch";"Jerez de la Frontera";"36.6816936";"-6.1377402"
"129";"Langreo";"Spain";"epoch";"Langreo";"43.2955423";"-5.6839733"
"130";"Leon";"Spain";"epoch";"Leon";"42.5989995";"-5.5682413"
"131";"Linares";"Spain";"epoch";"Linares";"38.0928249";"-3.6343581"
"132";"Linea de la Concepcion";"Spain";"epoch";"Linea de la Concepcion";"36.1677899";"-5.3482396"
"133";"Lleida";"Spain";"epoch";"Lleida";"41.6147605";"0.6267842"
"134";"Logrono";"Spain";"epoch";"Logrono";"42.4661196";"-2.4396676"
"135";"Lorca";"Spain";"epoch";"Lorca";"37.6715679";"-1.6988053"
"137";"Lugo";"Spain";"epoch";"Lugo";"43.0462247";"-7.4739921"
"138";"Manresa";"Spain";"epoch";"Manresa";"41.7288939";"1.8286765"
"139";"Mataro";"Spain";"epoch";"Mataro";"41.5398348";"2.4448926"
"140";"Melilla";"Spain";"epoch";"Melilla";"35.2918698";"-2.9409026"
"141";"Mieres";"Spain";"epoch";"Mieres";"42.1244124";"2.6401122"
"142";"Orihuela";"Spain";"epoch";"Orihuela";"38.0906911";"-0.946613"
"143";"Ourense";"Spain";"epoch";"Ourense";"42.1968459";"-7.6114105"
"144";"Oviedo";"Spain";"epoch";"Oviedo";"43.3533424";"-5.87951434"
"145";"Palencia";"Spain";"epoch";"Palencia";"42.0108856";"-4.5328735"
"146";"Palma de Mallorca";"Spain";"epoch";"Palma de Mallorca";"39.5695818";"2.6500745"
"147";"Palmas de Gran Canaria";"Spain";"epoch";"Palmas de Gran Canaria";"28.128874";"-15.4349448"
"149";"Pontevedra";"Spain";"epoch";"Pontevedra";"42.6075172";"-8.4714942"
"150";"Reus";"Spain";"epoch";"Reus";"41.1555564";"1.1076133"
"153";"Sabadell";"Spain";"epoch";"Sabadell";"41.5421013";"2.1138977"
"154";"Salamanca";"Spain";"epoch";"Salamanca";"40.9651572";"-5.6640182"
"155";"San Cristobal de la Laguna";"Spain";"epoch";"San Cristobal de la Laguna";"28.4857715";"-16.3159422"
"156";"San Fernando";"Spain";"epoch";"San Fernando";"36.45787";"-6.2048562"
"157";"Sanlucar de Barrameda";"Spain";"epoch";"Sanlucar de Barrameda";"36.7761393";"-6.3534794"
"158";"Santa Cruz de Tenerife";"Spain";"epoch";"Santa Cruz de Tenerife";"28.469648";"-16.2540884"
"159";"Santander";"Spain";"epoch";"Santander";"43.4620412";"-3.8099719"
"160";"Santiago de Compostela";"Spain";"epoch";"Santiago de Compostela";"42.8804219";"-8.5458608"
"161";"Talavera de la Reina";"Spain";"epoch";"Talavera de la Reina";"39.9603798";"-4.8311717"
"162";"Tarragona";"Spain";"epoch";"Tarragona";"41.1172364";"1.2546057"
"164";"Terrassa";"Spain";"epoch";"Terrassa";"41.5629885";"2.0102442"
"166";"Toledo";"Spain";"epoch";"Toledo";"39.8560679";"-4.0239568"
"167";"Tortosa";"Spain";"epoch";"Tortosa";"40.8110158";"0.5209333"
"168";"Utrera";"Spain";"epoch";"Utrera";"37.1824646";"-5.7817506"
"170";"Valladolid";"Spain";"epoch";"Valladolid";"41.6521328";"-4.728562"
"171";"Velez-Malaga";"Spain";"epoch";"Velez-Malaga";"36.7818408";"-4.0988568"
"172";"Vigo";"Spain";"epoch";"Vigo";"42.1964491";"-8.7117809"
"173";"Vitoria-Gasteiz";"Spain";"epoch";"Vitoria-Gasteiz";"42.8465088";"-2.6724025"
"175";"Zamora";"Spain";"epoch";"Zamora";"41.5056574";"-5.7448039"
"184";"Alessandria";"Italy";"epoch";"Alessandria";"44.9129225";"8.615321"
"185";"Ancona";"Italy";"epoch";"Ancona";"43.6170137";"13.5170982"
"186";"Andria";"Italy";"epoch";"Andria";"41.227674";"16.2947553"
"187";"Arezzo";"Italy";"epoch";"Arezzo";"43.4640246";"11.86046188"
"188";"Bari";"Italy";"epoch";"Bari";"41.1257843";"16.8620293"
"189";"Bergamo";"Italy";"epoch";"Bergamo";"45.6944947";"9.6698727"
"190";"Bolzano";"Italy";"epoch";"Bolzano";"46.4981125";"11.3547801"
"191";"Brescia";"Italy";"epoch";"Brescia";"45.5398022";"10.2200214"
"192";"Cagliari";"Italy";"epoch";"Cagliari";"39.2169525";"9.1128513"
"193";"Caltanissetta";"Italy";"epoch";"Caltanissetta";"37.4899412";"14.0631618"
"195";"Caserta";"Italy";"epoch";"Caserta";"41.0820827";"14.334708"
"196";"Castellammare di Stabia";"Italy";"epoch";"Castellammare di Stabia";"40.6943046";"14.4804813"
"197";"Catania";"Italy";"epoch";"Catania";"37.5022355";"15.08738"
"198";"Catanzaro";"Italy";"epoch";"Catanzaro";"38.9076353";"16.5960465"
"199";"Cesena";"Italy";"epoch";"Cesena";"44.136352";"12.2422442"
"201";"Cosenza";"Italy";"epoch";"Cosenza";"39.3099931";"16.2501929"
"202";"Cremona";"Italy";"epoch";"Cremona";"45.1334796";"10.0248716"
"203";"Faenza";"Italy";"epoch";"Faenza";"44.2855555";"11.8832055"
"204";"Ferrara";"Italy";"epoch";"Ferrara";"44.8372737";"11.6186451"
"205";"Foggia";"Italy";"epoch";"Foggia";"41.4623447";"15.5430624"
"206";"Forli";"Italy";"epoch";"Forli";"44.2227182";"12.0412435"
"207";"Gela";"Italy";"epoch";"Gela";"37.0664363";"14.2502445"
"210";"La Spezia";"Italy";"epoch";"La Spezia";"44.107033";"9.8282255"
"211";"Laquila";"Italy";"epoch";"Laquila";"42.3489203";"13.3979672"
"213";"Lecce";"Italy";"epoch";"Lecce";"40.3570373";"18.1718482"
"214";"Livorno";"Italy";"epoch";"Livorno";"43.5507411";"10.3091456"
"215";"Lucca";"Italy";"epoch";"Lucca";"43.8428381";"10.502876"
"216";"Mantova";"Italy";"epoch";"Mantova";"45.1566683";"10.7917191"
"217";"Marsala";"Italy";"epoch";"Marsala";"37.7979221";"12.4342091"
"218";"Messina";"Italy";"epoch";"Messina";"38.1937571";"15.5542082"
"219";"Modena";"Italy";"epoch";"Modena";"44.6458885";"10.9255707"
"221";"Monza";"Italy";"epoch";"Monza";"45.5834418";"9.2735257"
"222";"Novara";"Italy";"epoch";"Novara";"45.4464036";"8.619655"
"223";"Padova";"Italy";"epoch";"Padova";"45.4077172";"11.8734455"
"224";"Parma";"Italy";"epoch";"Parma";"44.8013678";"10.3280833"
"225";"Pavia";"Italy";"epoch";"Pavia";"45.1860043";"9.1546375"
"226";"Perugia";"Italy";"epoch";"Perugia";"43.1119613";"12.3890104"
"227";"Pesaro";"Italy";"epoch";"Pesaro";"43.9098114";"12.9131228"
"228";"Pescara";"Italy";"epoch";"Pescara";"42.469613";"14.2059269"
"229";"Piacenza";"Italy";"epoch";"Piacenza";"45.0534751";"9.6947461"
"230";"Pisa";"Italy";"epoch";"Pisa";"43.7159395";"10.4018624"
"231";"Pistoia";"Italy";"epoch";"Pistoia";"43.9336213";"10.9174238"
"232";"Prato";"Italy";"epoch";"Prato";"43.880598";"11.0969262"
"233";"Ravenna";"Italy";"epoch";"Ravenna";"44.4161414";"12.2017617"
"234";"Reggio di Calabria";"Italy";"epoch";"Reggio di Calabria";"38.1035389";"15.6397556"
"235";"Reggio nellEmilia";"Italy";"epoch";"Reggio nellEmilia";"44.6978446";"10.6304958"
"236";"Rimini";"Italy";"epoch";"Rimini";"44.0593886";"12.5684371"
"237";"Salerno";"Italy";"epoch";"Salerno";"40.6803601";"14.7594542"
"238";"Sassari";"Italy";"epoch";"Sassari";"40.7232643";"8.5610074"
"239";"Sesto San Giovanni";"Italy";"epoch";"Sesto San Giovanni";"45.5357218";"9.2376549"
"240";"Siena";"Italy";"epoch";"Siena";"43.3185536";"11.3316533"
"241";"Siracusa";"Italy";"epoch";"Siracusa";"37.0646139";"15.2907196"
"242";"Taranto";"Italy";"epoch";"Taranto";"40.4712427";"17.2432278"
"243";"Terni";"Italy";"epoch";"Terni";"42.5641417";"12.6405466"
"244";"Torre Annunziata";"Italy";"epoch";"Torre Annunziata";"40.7525236";"14.4550044"
"245";"Torre del Greco";"Italy";"epoch";"Torre del Greco";"40.7879211";"14.3682813"
"246";"Trapani";"Italy";"epoch";"Trapani";"38.0174321";"12.515992"
"247";"Trento";"Italy";"epoch";"Trento";"46.0664228";"11.1257601"
"248";"Trieste";"Italy";"epoch";"Trieste";"45.6500335";"13.7706559"
"249";"Udine";"Italy";"epoch";"Udine";"46.0634632";"13.2358377"
"250";"Venezia";"Italy";"epoch";"Venezia";"45.4371908";"12.3345898"
"251";"Verona";"Italy";"epoch";"Verona";"45.4384958";"10.9924122"
"252";"Vicenza";"Italy";"epoch";"Vicenza";"45.5488306";"11.5478825"
"253";"Vigevano";"Italy";"epoch";"Vigevano";"45.3170942";"8.858603"
"261";"Acambaro";"Mexico";"epoch";"Acambaro";"20.07084755";"-100.7447445"
"262";"Acapulco";"Mexico";"epoch";"Acapulco";"16.8680495";"-99.8940182"
"264";"Aguascalientes";"Mexico";"epoch";"Aguascalientes";"21.8806553";"-102.2961323"
"269";"Campeche";"Mexico";"epoch";"Campeche";"19.32920555";"-89.94391483"
"271";"Celaya";"Mexico";"epoch";"Celaya";"20.5222851";"-100.8307739"
"273";"Chihuahua";"Mexico";"epoch";"Chihuahua";"28.5000001";"-106.0000001"
"274";"Ciudad Guzman";"Mexico";"epoch";"Ciudad Guzman";"19.7001632";"-103.4639353"
"275";"Ciudad Madero";"Mexico";"epoch";"Ciudad Madero";"22.2783046";"-97.82426861"
"276";"Ciudad Obregon";"Mexico";"epoch";"Ciudad Obregon";"27.4846619";"-109.9337782"
"278";"Ciudad Victoria";"Mexico";"epoch";"Ciudad Victoria";"23.7389846";"-99.1441352"
"279";"Coatzacoalcos";"Mexico";"epoch";"Coatzacoalcos";"18.1367924";"-94.37775916"
"280";"Colima - Villa de Alvarez";"Mexico";"epoch";"Colima - Villa de Alvarez";"19.274843";"-103.7159042"
"112.1";"Cordoba";"Mexico";"epoch";"Cordoba";"37.8845813";"-4.7760138"
"282";"Cuernavaca";"Mexico";"epoch";"Cuernavaca";"18.9218274";"-99.2342282"
"283";"Culiacan";"Mexico";"epoch";"Culiacan";"24.7978965";"-107.393395"
"285";"Durango";"Mexico";"epoch";"Durango";"24.833333";"-104.833333"
"287";"Ensenada";"Mexico";"epoch";"Ensenada";"30.1927661";"-115.2314626"
"288";"Fresnillo";"Mexico";"epoch";"Fresnillo";"23.2249237";"-103.0162891"
"289";"Guanajuato";"Mexico";"epoch";"Guanajuato";"20.9876996";"-101"
"290";"Hermosillo";"Mexico";"epoch";"Hermosillo";"29.0948207";"-110.9692202"
"291";"Heroica Matamoros";"Mexico";"epoch";"Heroica Matamoros";"31.3267701";"-110.9513566"
"292";"Heroica Nogales";"Mexico";"epoch";"Heroica Nogales";"31.3078109";"-110.9424823"
"293";"Heroica Zamora";"Mexico";"epoch";"Heroica Zamora";"30.6393333";"-112.2678333"
"295";"Hidalgo del Parral";"Mexico";"epoch";"Hidalgo del Parral";"27.11538475";"-105.764288"
"297";"Iguala de la Independencia";"Mexico";"epoch";"Iguala de la Independencia";"18.1923169";"-99.60236695"
"298";"Irapuato";"Mexico";"epoch";"Irapuato";"20.6748936";"-101.3885423"
"301";"La Paz";"Mexico";"epoch";"La Paz";"19.36376855";"-98.9463136"
"302";"La Piedad - Penjamo";"Mexico";"epoch";"La Piedad - Penjamo";"20.3691855";"-101.9974856"
"131.1";"Linares";"Mexico";"epoch";"Linares";"38.0928249";"-3.6343581"
"305";"Los Mochis";"Mexico";"epoch";"Los Mochis";"25.78453485";"-109.0032924"
"306";"Matehuala";"Mexico";"epoch";"Matehuala";"23.52290375";"-100.604046"
"307";"Mazatlan";"Mexico";"epoch";"Mazatlan";"23.2313053";"-106.4153144"
"308";"Merida";"Mexico";"epoch";"Merida";"20.9670759";"-89.6237402"
"309";"Mexicali";"Mexico";"epoch";"Mexicali";"32.6248622";"-115.448325"
"310";"Minatitlan";"Mexico";"epoch";"Minatitlan";"17.7052686";"-94.38617333"
"311";"Monclova";"Mexico";"epoch";"Monclova";"26.8999988";"-101.4171173"
"312";"Morelia";"Mexico";"epoch";"Morelia";"19.7027116";"-101.1923818"
"314";"Nuevo Laredo";"Mexico";"epoch";"Nuevo Laredo";"27.4751071";"-99.67691718"
"315";"Oaxaca";"Mexico";"epoch";"Oaxaca";"17";"-96.5"
"316";"Ocotlan";"Mexico";"epoch";"Ocotlan";"20.3872033";"-102.7336192"
"317";"Orizaba";"Mexico";"epoch";"Orizaba";"18.85923285";"-97.11065374"
"318";"Pachuca";"Mexico";"epoch";"Pachuca";"20.1165413";"-98.7413535"
"320";"Piedras Negras";"Mexico";"epoch";"Piedras Negras";"28.7019602";"-100.5219222"
"323";"Queretaro";"Mexico";"epoch";"Queretaro";"20.8542575";"-99.84756"
"324";"Reynosa";"Mexico";"epoch";"Reynosa";"25.8366364";"-98.3708594"
"154.1";"Salamanca";"Mexico";"epoch";"Salamanca";"40.9651572";"-5.6640182"
"328";"Saltillo";"Mexico";"epoch";"Saltillo";"25.4230425";"-100.9927509"
"329";"San Cristobal de las Casas";"Mexico";"epoch";"San Cristobal de las Casas";"16.6835469";"-92.61551842"
"330";"San Francisco del Rincon";"Mexico";"epoch";"San Francisco del Rincon";"20.92484015";"-101.7983288"
"331";"San Luis Potosi";"Mexico";"epoch";"San Luis Potosi";"22.5000001";"-100.5000001"
"333";"Silao";"Mexico";"epoch";"Silao";"20.943727";"-101.427043"
"334";"Tampico";"Mexico";"epoch";"Tampico";"22.2329889";"-97.8614802"
"335";"Tapachula";"Mexico";"epoch";"Tapachula";"14.92746";"-92.3223122"
"336";"Tehuacan";"Mexico";"epoch";"Tehuacan";"18.46580115";"-97.3978348"
"337";"Tehuantepec - Salina Cruz";"Mexico";"epoch";"Tehuantepec - Salina Cruz";"16.2161458";"-95.1972137"
"338";"Tepic";"Mexico";"epoch";"Tepic";"21.5044414";"-104.8946667"
"339";"Teziutlan";"Mexico";"epoch";"Teziutlan";"19.87399265";"-97.37156287"
"340";"Tijuana";"Mexico";"epoch";"Tijuana";"32.5010188";"-116.9646629"
"341";"Tlaxcala - Apizaco";"Mexico";"epoch";"Tlaxcala - Apizaco";"19.3987367";"-98.1333391"
"342";"Toluca";"Mexico";"epoch";"Toluca";"19.292545";"-99.6569007"
"343";"Tuxpam";"Mexico";"epoch";"Tuxpam";"18.8817913";"-97.1081611"
"344";"Tuxtla Gutierrez";"Mexico";"epoch";"Tuxtla Gutierrez";"16.74521845";"-93.14180864"
"345";"Uruapan";"Mexico";"epoch";"Uruapan";"19.40604335";"-102.03429"
"347";"Veracruz";"Mexico";"epoch";"Veracruz";"19.333333";"-96.666667"
"348";"Villahermosa";"Mexico";"epoch";"Villahermosa";"20.738333";"-98.0725"
"349";"Xalapa";"Mexico";"epoch";"Xalapa";"19.5408338";"-96.9146374"
"350";"Zacatecas - Guadalupe";"Mexico";"epoch";"Zacatecas - Guadalupe";"22.824711";"-102.4049183"
"577";"Agen";"France";"epoch";"Agen";"44.2015624";"0.6176324"
"578";"Ajaccio";"France";"epoch";"Ajaccio";"41.9263991";"8.7376029"
"579";"Albi";"France";"epoch";"Albi";"43.9277552";"2.147899"
"581";"Amiens";"France";"epoch";"Amiens";"49.8941708";"2.2956951"
"582";"Angers";"France";"epoch";"Angers";"47.4739884";"-0.5515588"
"584";"Annemasse";"France";"epoch";"Annemasse";"46.1934005";"6.2341093"
"586";"Arras";"France";"epoch";"Arras";"50.291048";"2.7772211"
"587";"Avignon";"France";"epoch";"Avignon";"43.9492493";"4.8059012"
"588";"Bastia";"France";"epoch";"Bastia";"42.7065505";"9.452542"
"589";"Bayonne";"France";"epoch";"Bayonne";"43.4933379";"-1.475099"
"590";"Beauvais";"France";"epoch";"Beauvais";"49.4300997";"2.0823355"
"591";"Belfort";"France";"epoch";"Belfort";"47.6379599";"6.8628942"
"595";"Blois";"France";"epoch";"Blois";"47.5876861";"1.3337639"
"596";"Boulogne-sur-Mer";"France";"epoch";"Boulogne-sur-Mer";"50.7259985";"1.6118771"
"597";"Bourg-en-Bresse";"France";"epoch";"Bourg-en-Bresse";"46.2051192";"5.2250324"
"598";"Bourges";"France";"epoch";"Bourges";"47.0805693";"2.398932"
"599";"Bourgoin-Jallieu";"France";"epoch";"Bourgoin-Jallieu";"45.5872259";"5.2828123"
"600";"Brest";"France";"epoch";"Brest";"48.3905283";"-4.4860088"
"601";"Brive-la-Gaillarde";"France";"epoch";"Brive-la-Gaillarde";"45.1584982";"1.5332389"
"602";"Caen";"France";"epoch";"Caen";"49.1828008";"-0.3690815"
"603";"Calais";"France";"epoch";"Calais";"50.9488";"1.87468"
"608";"Chartres";"France";"epoch";"Chartres";"48.4438601";"1.4881434"
"609";"Cherbourg-Octeville";"France";"epoch";"Cherbourg-Octeville";"49.6343606";"-1.628568691"
"610";"Clermont-Ferrand";"France";"epoch";"Clermont-Ferrand";"45.7774551";"3.0819427"
"611";"Cluses";"France";"epoch";"Cluses";"46.0603171";"6.5804218"
"612";"Colmar";"France";"epoch";"Colmar";"48.0777517";"7.3579641"
"614";"Creil";"France";"epoch";"Creil";"49.2607914";"2.4733771"
"615";"Dijon";"France";"epoch";"Dijon";"47.3215806";"5.0414701"
"616";"Douai - Lens";"France";"epoch";"Douai - Lens";"50.3861442";"2.9800138"
"617";"Draguignan";"France";"epoch";"Draguignan";"43.5374662";"6.4627333"
"618";"Dunkerque";"France";"epoch";"Dunkerque";"51.0347708";"2.3772525"
"620";"Forbach";"France";"epoch";"Forbach";"49.1862822";"6.8958562"
"622";"Grenoble";"France";"epoch";"Grenoble";"45.1875602";"5.7357819"
"623";"La Rochelle";"France";"epoch";"La Rochelle";"46.1591126";"-1.1520434"
"624";"La Teste-de-Buch - Arcachon";"France";"epoch";"La Teste-de-Buch - Arcachon";"44.6316943";"-1.1491319"
"37";"Laval";"France";"epoch";"Laval";"45.60558895";"-73.73441731"
"626";"Le Havre";"France";"epoch";"Le Havre";"49.4938975";"0.1079732"
"627";"Le Mans";"France";"epoch";"Le Mans";"48.0073498";"0.1967379"
"628";"Limoges";"France";"epoch";"Limoges";"45.8354243";"1.2644847"
"629";"Lorient";"France";"epoch";"Lorient";"47.7477336";"-3.3660907"
"630";"Maubeuge";"France";"epoch";"Maubeuge";"50.27964";"3.9674154"
"631";"Meaux";"France";"epoch";"Meaux";"48.9582708";"2.8773541"
"632";"Metz";"France";"epoch";"Metz";"49.1196964";"6.1763552"
"633";"Montauban";"France";"epoch";"Montauban";"44.0175835";"1.3549991"
"635";"Montpellier";"France";"epoch";"Montpellier";"43.6112422";"3.8767337"
"636";"Mulhouse";"France";"epoch";"Mulhouse";"47.7494188";"7.3399355"
"637";"Nancy";"France";"epoch";"Nancy";"48.6937223";"6.1834097"
"638";"Nantes";"France";"epoch";"Nantes";"47.2186371";"-1.5541362"
"639";"Nevers";"France";"epoch";"Nevers";"46.9876601";"3.1577203"
"641";"Niort";"France";"epoch";"Niort";"46.3239455";"-0.4645212"
"643";"Pau";"France";"epoch";"Pau";"43.2957547";"-0.3685668"
"645";"Perpignan";"France";"epoch";"Perpignan";"42.6985304";"2.8953121"
"646";"Poitiers";"France";"epoch";"Poitiers";"46.5802596";"0.340196"
"647";"Quimper";"France";"epoch";"Quimper";"47.9960325";"-4.1024782"
"648";"Reims";"France";"epoch";"Reims";"49.2577886";"4.031926"
"649";"Rennes";"France";"epoch";"Rennes";"48.1113387";"-1.6800198"
"650";"Roanne";"France";"epoch";"Roanne";"46.0345572";"4.0729178"
"651";"Rouen";"France";"epoch";"Rouen";"49.4404591";"1.0939658"
"652";"Saint-Brieuc";"France";"epoch";"Saint-Brieuc";"48.5141594";"-2.7602707"
"654";"Saint-Just-Saint-Rambert";"France";"epoch";"Saint-Just-Saint-Rambert";"45.5005319";"4.2440138"
"655";"Saint-Nazaire";"France";"epoch";"Saint-Nazaire";"45.2566002";"5.8490243"
"656";"Saint-Quentin";"France";"epoch";"Saint-Quentin";"49.8465253";"3.2876843"
"658";"Strasbourg";"France";"epoch";"Strasbourg";"48.584614";"7.7507127"
"659";"Tarbes";"France";"epoch";"Tarbes";"43.232858";"0.0781021"
"660";"Thionville";"France";"epoch";"Thionville";"49.3579272";"6.1675872"
"661";"Toulon";"France";"epoch";"Toulon";"43.1257311";"5.9304919"
"662";"Toulouse";"France";"epoch";"Toulouse";"43.6044622";"1.4442469"
"663";"Tours";"France";"epoch";"Tours";"47.3900474";"0.6889268"
"664";"Troyes";"France";"epoch";"Troyes";"48.2971626";"4.0746257"
"665";"Valence";"France";"epoch";"Valence";"44.9332277";"4.8920811"
"666";"Valenciennes";"France";"epoch";"Valenciennes";"50.3579317";"3.5234846"
"667";"Vichy";"France";"epoch";"Vichy";"46.1239268";"3.4203712"
"668";"Vienne";"France";"epoch";"Vienne";"46.61211655";"0.46540701"
"420";"Akita";"Japan";"epoch";"Akita";"39.6898802";"140.342608"
"421";"Aomori";"Japan";"epoch";"Aomori";"40.886943";"140.590121"
"422";"Asahikawa";"Japan";"epoch";"Asahikawa";"43.758203";"142.371544"
"423";"Chiba";"Japan";"epoch";"Chiba";"35.549399";"140.2647303"
"424";"Fukui";"Japan";"epoch";"Fukui";"35.9263502";"136.6068127"
"425";"Funabashi";"Japan";"epoch";"Funabashi";"35.699997";"139.988668"
"426";"Gifu";"Japan";"epoch";"Gifu";"35.7867449";"137.0460777"
"427";"Hachioji";"Japan";"epoch";"Hachioji";"35.660175";"139.283071"
"428";"Hakodate";"Japan";"epoch";"Hakodate";"41.768793";"140.729008"
"429";"Hamamatsu";"Japan";"epoch";"Hamamatsu";"34.7109786";"137.7259431"
"430";"Himeji";"Japan";"epoch";"Himeji";"34.8153529";"134.6854793"
"431";"Kagoshima";"Japan";"epoch";"Kagoshima";"31.521587";"130.5474077"
"432";"Kanazawa";"Japan";"epoch";"Kanazawa";"36.561627";"136.6568822"
"433";"Kawaguchi";"Japan";"epoch";"Kawaguchi";"35.8078228";"139.7241054"
"434";"Kawasaki";"Japan";"epoch";"Kawasaki";"35.523142";"139.708024"
"435";"Kochi";"Japan";"epoch";"Kochi";"33.6569018";"133.5606241"
"436";"Kumamoto";"Japan";"epoch";"Kumamoto";"32.6450475";"130.6341345"
"437";"Kurashiki";"Japan";"epoch";"Kurashiki";"34.5850791";"133.7719957"
"438";"Maebashi";"Japan";"epoch";"Maebashi";"36.3893418";"139.0632826"
"440";"Matsuyama";"Japan";"epoch";"Matsuyama";"33.8395188";"132.7653521"
"441";"Muroran";"Japan";"epoch";"Muroran";"42.3152461";"140.9740731"
"442";"Nagano";"Japan";"epoch";"Nagano";"36.1143945";"138.0319015"
"443";"Niigata";"Japan";"epoch";"Niigata";"37.6452283";"138.7669125"
"444";"Okayama";"Japan";"epoch";"Okayama";"34.8581334";"133.7759256"
"445";"Omuta";"Japan";"epoch";"Omuta";"33.0299874";"130.4433467"
"448";"Sasebo";"Japan";"epoch";"Sasebo";"33.1799965";"129.7152872"
"449";"Shizuoka";"Japan";"epoch";"Shizuoka";"34.9332488";"138.0955398"
"450";"Takamatsu";"Japan";"epoch";"Takamatsu";"34.3425592";"134.0465338"
"451";"Tokushima";"Japan";"epoch";"Tokushima";"33.9196418";"134.2509634"
"452";"Toyama";"Japan";"epoch";"Toyama";"36.6957569";"137.2136215"
"453";"Toyohashi";"Japan";"epoch";"Toyohashi";"34.769123";"137.391461"
"454";"Tsu";"Japan";"epoch";"Tsu";"34.7341973";"136.5153283"
"455";"Utsunomiya";"Japan";"epoch";"Utsunomiya";"36.5549677";"139.8828776"
"456";"Wakayama";"Japan";"epoch";"Wakayama";"33.8070292";"135.5930743"
"457";"Yokkaichi";"Japan";"epoch";"Yokkaichi";"34.9648428";"136.624845"
"465";"Akron";"USA";"epoch";"Akron";"41.083064";"-81.518485"
"466";"Albany";"USA";"epoch";"Albany";"42.6511674";"-73.754968"
"468";"Allentown";"USA";"epoch";"Allentown";"40.6022059";"-75.4712794"
"471";"Arlington";"USA";"epoch";"Arlington";"32.701939";"-97.10562483"
"472";"Atlanta";"USA";"epoch";"Atlanta";"33.7490987";"-84.3901849"
"474";"Austin";"USA";"epoch";"Austin";"30.2711286";"-97.7436995"
"476";"Baltimore";"USA";"epoch";"Baltimore";"39.2847494";"-76.62047464"
"477";"Baton Rouge";"USA";"epoch";"Baton Rouge";"30.4459596";"-91.18738"
"353";"Birmingham";"USA";"epoch";"Birmingham";"52.51213812";"-1.965490369"
"479";"Boston";"USA";"epoch";"Boston";"42.3602534";"-71.0582912"
"480";"Bridgeport";"USA";"epoch";"Bridgeport";"41.1670412";"-73.2048348"
"481";"Buffalo";"USA";"epoch";"Buffalo";"42.8867166";"-78.8783922"
"483";"Charlotte";"USA";"epoch";"Charlotte";"35.2270869";"-80.8431268"
"484";"Chattanooga";"USA";"epoch";"Chattanooga";"35.0456297";"-85.3096801"
"485";"Cincinnati";"USA";"epoch";"Cincinnati";"39.1014537";"-84.5124602"
"486";"Cleveland";"USA";"epoch";"Cleveland";"41.5051613";"-81.6934446"
"488";"Columbus";"USA";"epoch";"Columbus";"39.9622601";"-83.0007065"
"489";"Corpus Christi";"USA";"epoch";"Corpus Christi";"27.8002542";"-97.3955744"
"490";"Dallas";"USA";"epoch";"Dallas";"32.7762719";"-96.7968559"
"491";"Dayton";"USA";"epoch";"Dayton";"39.7589478";"-84.1916069"
"492";"Denver";"USA";"epoch";"Denver";"39.7392364";"-104.9848623"
"493";"Des Moines";"USA";"epoch";"Des Moines";"41.5910641";"-93.6037149"
"494";"El Paso";"USA";"epoch";"El Paso";"31.7600372";"-106.487287"
"495";"Elizabeth";"USA";"epoch";"Elizabeth";"40.6639916";"-74.2107006"
"496";"Erie";"USA";"epoch";"Erie";"42.1294712";"-80.0852695"
"497";"Evansville";"USA";"epoch";"Evansville";"37.9747645";"-87.5558483"
"498";"Flint";"USA";"epoch";"Flint";"43.0171773";"-83.7236024"
"499";"Fort Wayne";"USA";"epoch";"Fort Wayne";"41.0799898";"-85.1386015"
"500";"Fort Worth";"USA";"epoch";"Fort Worth";"32.753177";"-97.3327459"
"502";"Gary";"USA";"epoch";"Gary";"41.6021292";"-87.3371372"
"503";"Grand Rapids";"USA";"epoch";"Grand Rapids";"42.9632405";"-85.6678639"
"505";"Honolulu";"USA";"epoch";"Honolulu";"21.304547";"-157.8556764"
"506";"Indianapolis";"USA";"epoch";"Indianapolis";"39.7683331";"-86.1583502"
"508";"Jacksonville";"USA";"epoch";"Jacksonville";"30.3321838";"-81.655651"
"509";"Jersey City";"USA";"epoch";"Jersey City";"40.7281575";"-74.0776417"
"510";"Kansas City";"USA";"epoch";"Kansas City";"39.100105";"-94.5781416"
"511";"Knoxville";"USA";"epoch";"Knoxville";"35.9603948";"-83.9210261"
"514";"Lincoln";"USA";"epoch";"Lincoln";"40.8";"-96.667821"
"515";"Long Beach";"USA";"epoch";"Long Beach";"33.7690164";"-118.1916048"
"516";"Louisville";"USA";"epoch";"Louisville";"38.2542376";"-85.759407"
"520";"Memphis";"USA";"epoch";"Memphis";"35.1490215";"-90.0516285"
"521";"Miami";"USA";"epoch";"Miami";"25.7742658";"-80.1936589"
"522";"Milwaukee";"USA";"epoch";"Milwaukee";"43.0349931";"-87.922497"
"523";"Minneapolis";"USA";"epoch";"Minneapolis";"44.9706705";"-93.26821774"
"524";"Mobile";"USA";"epoch";"Mobile";"30.6943566";"-88.0430541"
"525";"Montgomery";"USA";"epoch";"Montgomery";"32.3669656";"-86.3006485"
"526";"Nashville-Davidson";"USA";"epoch";"Nashville-Davidson";"36.1622296";"-86.7743531"
"527";"New Haven";"USA";"epoch";"New Haven";"41.3082138";"-72.9250518"
"528";"New Orleans";"USA";"epoch";"New Orleans";"29.9499323";"-90.0701156"
"529";"Newark";"USA";"epoch";"Newark";"40.735657";"-74.1723667"
"530";"Norfolk";"USA";"epoch";"Norfolk";"36.8889933";"-76.2481624"
"531";"Oakland";"USA";"epoch";"Oakland";"37.8044557";"-122.2713563"
"532";"Oklahoma City";"USA";"epoch";"Oklahoma City";"35.4729886";"-97.5170536"
"533";"Omaha";"USA";"epoch";"Omaha";"41.2587459";"-95.9383758"
"534";"Paterson";"USA";"epoch";"Paterson";"40.9167654";"-74.171811"
"535";"Peoria";"USA";"epoch";"Peoria";"40.6938609";"-89.5891008"
"536";"Phoenix";"USA";"epoch";"Phoenix";"33.4485866";"-112.0773456"
"537";"Pittsburgh";"USA";"epoch";"Pittsburgh";"40.4416941";"-79.9900861"
"539";"Portland";"USA";"epoch";"Portland";"45.5202471";"-122.6741949"
"540";"Providence";"USA";"epoch";"Providence";"41.8239891";"-71.4128343"
"56";"Richmond";"USA";"epoch";"Richmond";"49.163168";"-123.137414"
"542";"Rochester";"USA";"epoch";"Rochester";"43.157285";"-77.615214"
"543";"Rockford";"USA";"epoch";"Rockford";"42.2713945";"-89.093966"
"544";"Sacramento";"USA";"epoch";"Sacramento";"38.5815719";"-121.4943996"
"545";"Saint Paul";"USA";"epoch";"Saint Paul";"44.9504037";"-93.1015026"
"547";"Salt Lake City";"USA";"epoch";"Salt Lake City";"40.7670126";"-111.8904308"
"548";"San Antonio";"USA";"epoch";"San Antonio";"29.4246002";"-98.4951405"
"549";"San Diego";"USA";"epoch";"San Diego";"32.7174209";"-117.1627714"
"550";"San Francisco";"USA";"epoch";"San Francisco";"37.7792808";"-122.4192363"
"551";"San Jose";"USA";"epoch";"San Jose";"37.3361905";"-121.8905833"
"553";"Savannah";"USA";"epoch";"Savannah";"32.0809263";"-81.0911768"
"554";"Seattle";"USA";"epoch";"Seattle";"47.6038321";"-122.3300624"
"555";"Shreveport";"USA";"epoch";"Shreveport";"32.5221828";"-93.7651944"
"556";"South Bend";"USA";"epoch";"South Bend";"41.6833813";"-86.2500066"
"557";"Spokane";"USA";"epoch";"Spokane";"47.6579425";"-117.4212265"
"558";"Springfield";"USA";"epoch";"Springfield";"39.7990175";"-89.6439575"
"559";"Syracuse";"USA";"epoch";"Syracuse";"43.0481221";"-76.1474244"
"560";"Tacoma";"USA";"epoch";"Tacoma";"47.2495798";"-122.4398746"
"561";"Tampa";"USA";"epoch";"Tampa";"27.9477595";"-82.458444"
"166.1";"Toledo";"USA";"epoch";"Toledo";"39.8560679";"-4.0239568"
"564";"Tulsa";"USA";"epoch";"Tulsa";"36.1556805";"-95.9929113"
"566";"Washington";"USA";"epoch";"Washington";"38.8948932";"-77.0365529"
"567";"Wichita";"USA";"epoch";"Wichita";"37.6922361";"-97.3375448"
"568";"Worcester";"USA";"epoch";"Worcester";"42.2625932";"-71.8022934"
"569";"Yonkers";"USA";"epoch";"Yonkers";"40.9312099";"-73.8987469"
"570";"Youngstown";"USA";"epoch";"Youngstown";"41.1035786";"-80.6520161"
"363";"Aberdeen";"UK";"epoch";"Aberdeen";"57.1482429";"-2.0928095"
"364";"Barnsley";"UK";"epoch";"Barnsley";"53.5527719";"-1.4827755"
"365";"Bath";"UK";"epoch";"Bath";"51.3813864";"-2.3596963"
"366";"Birkenhead";"UK";"epoch";"Birkenhead";"53.3943509";"-3.0191569"
"367";"Blackburn";"UK";"epoch";"Blackburn";"53.749326";"-2.4840566"
"368";"Brighton";"UK";"epoch";"Brighton";"50.8220399";"-0.1374061"
"370";"Cardiff";"UK";"epoch";"Cardiff";"51.4816546";"-3.1791934"
"371";"Coventry";"UK";"epoch";"Coventry";"52.4081812";"-1.510477"
"372";"Darlington";"UK";"epoch";"Darlington";"54.53525645";"-1.552942975"
"373";"Derby";"UK";"epoch";"Derby";"52.9212617";"-1.4761491"
"374";"Doncaster";"UK";"epoch";"Doncaster";"53.5227681";"-1.1335312"
"375";"Dudley";"UK";"epoch";"Dudley";"52.5110832";"-2.0816813"
"376";"Dundee";"UK";"epoch";"Dundee";"56.4605938";"-2.97019"
"28.1";"Halifax";"UK";"epoch";"Halifax";"44.8543667";"-63.137798"
"378";"Hartlepool";"UK";"epoch";"Hartlepool";"54.6857276";"-1.2093696"
"379";"Huddersfield";"UK";"epoch";"Huddersfield";"53.6466645";"-1.7822482"
"30.1";"Hull";"UK";"epoch";"Hull";"45.4371637";"-75.7241942"
"382";"Leicester";"UK";"epoch";"Leicester";"52.6361398";"-1.1330789"
"383";"Luton";"UK";"epoch";"Luton";"51.89107295";"-0.423030408"
"384";"Middlesbrough";"UK";"epoch";"Middlesbrough";"54.5461946";"-1.235830489"
"385";"Newcastle-upon-Tyne";"UK";"epoch";"Newcastle-upon-Tyne";"54.9738474";"-1.6131572"
"387";"Norwich";"UK";"epoch";"Norwich";"52.628606";"1.29227"
"388";"Nottingham";"UK";"epoch";"Nottingham";"52.9534193";"-1.1496461"
"389";"Oldbury and Smethwick";"UK";"epoch";"Oldbury and Smethwick";"52.5012103";"-1.9796525"
"390";"Plymouth";"UK";"epoch";"Plymouth";"50.3712659";"-4.1425658"
"391";"Poole";"UK";"epoch";"Poole";"50.74018055";"-1.953773835"
"392";"Portsmouth";"UK";"epoch";"Portsmouth";"50.8036831";"-1.075614"
"393";"Preston";"UK";"epoch";"Preston";"53.7593363";"-2.6992717"
"394";"Rhondda";"UK";"epoch";"Rhondda";"50.19383355";"-5.42349135"
"395";"Rotherham";"UK";"epoch";"Rotherham";"53.4310417";"-1.355187"
"398";"South Shields";"UK";"epoch";"South Shields";"54.9987414";"-1.4321848"
"399";"Southampton";"UK";"epoch";"Southampton";"50.9137978";"-1.399040483"
"400";"Southend-on-Sea";"UK";"epoch";"Southend-on-Sea";"51.54063195";"0.716114673"
"401";"Stoke-on-Trent";"UK";"epoch";"Stoke-on-Trent";"53.0162014";"-2.1812607"
"402";"Sunderland";"UK";"epoch";"Sunderland";"54.9063791";"-1.375053"
"403";"Swansea";"UK";"epoch";"Swansea";"51.6195955";"-3.9459248"
"404";"Wakefield";"UK";"epoch";"Wakefield";"53.6829541";"-1.4967286"
"405";"Walsall";"UK";"epoch";"Walsall";"52.5847949";"-1.9822687"
"407";"Wolverhampton";"UK";"epoch";"Wolverhampton";"52.5847651";"-2.127567"
"679";"Almaty";"Soviet";"epoch";"Almaty";"43.25";"76.95"
"680";"Astrakhan";"Soviet";"epoch";"Astrakhan";"46.35";"48.03333333"
"681";"Babruisk";"Soviet";"epoch";"Babruisk";"53.15";"29.23"
"682";"Baku";"Soviet";"epoch";"Baku";"40.4";"49.88"
"NA";"Bar0ul";"Soviet";"epoch";NA;NA;NA
"685";"Bishkek";"Soviet";"epoch";"Bishkek";"42.87";"74.6"
"687";"Chelyabinsk";"Soviet";"epoch";"Chelyabinsk";"55.15";"61.4"
"688";"Chernivtsi";"Soviet";"epoch";"Chernivtsi";"48.3";"25.93"
"NA.1";"Chisi0u";"Soviet";"epoch";NA;NA;NA
"690";"Chita";"Soviet";"epoch";"Chita";"52.03333333";"113.5"
"692";"Dniepropetrovsk";"Soviet";"epoch";"Dniepropetrovsk";"48.45";"34.98"
"693";"Donetsk";"Soviet";"epoch";"Donetsk";"48";"37.8"
"694";"Dushambe";"Soviet";"epoch";"Dushambe";"38.56";"68.77"
"695";"Ekaterinburg";"Soviet";"epoch";"Ekaterinburg";"56.83333333";"60.58333333"
"696";"Erevan";"Soviet";"epoch";"Erevan";"40.18";"44.51"
"698";"Gomel";"Soviet";"epoch";"Gomel";"52.44";"30.98"
"699";"Gorlivka";"Soviet";"epoch";"Gorlivka";"48.3";"38.05"
"NA.2";"Grod0";"Soviet";"epoch";NA;NA;NA
"701";"Irkutsk";"Soviet";"epoch";"Irkutsk";"52.28333333";"104.3"
"703";"Izhevsk";"Soviet";"epoch";"Izhevsk";"56.85";"53.21666667"
"704";"Kaliningrad";"Soviet";"epoch";"Kaliningrad";"54.71666667";"20.5"
"705";"Kaluga";"Soviet";"epoch";"Kaluga";"54.51666667";"36.26666667"
"706";"Karagandy";"Soviet";"epoch";"Karagandy";"49.8";"73.1"
"NA.3";"Kau0s";"Soviet";"epoch";NA;NA;NA
"669";"Kazan";"Soviet";"epoch";"Kazan";"55.78333333";"49.11666667"
"710";"Khabarovsk";"Soviet";"epoch";"Khabarovsk";"48.48333333";"135.0666667"
"670";"Kharkiv";"Soviet";"epoch";"Kharkiv";"50";"36.25"
"712";"Kherson";"Soviet";"epoch";"Kherson";"46.63";"32.6"
"671";"Kiiv";"Soviet";"epoch";"Kiiv";"50.43";"30.52"
"714";"Kirov";"Soviet";"epoch";"Kirov";"58.6";"49.65"
"717";"Kramatorsk";"Soviet";"epoch";"Kramatorsk";"48.72";"37.53"
"718";"Krasnodar";"Soviet";"epoch";"Krasnodar";"45.03333333";"38.98333333"
"719";"Krasnoyarsk";"Soviet";"epoch";"Krasnoyarsk";"56";"92.93333333"
"720";"Krivii Rig";"Soviet";"epoch";"Krivii Rig";"47.92";"33.35"
"721";"Kursk";"Soviet";"epoch";"Kursk";"51.71666667";"36.18333333"
"723";"Lipetsk";"Soviet";"epoch";"Lipetsk";"52.61666667";"39.6"
"724";"Lviv";"Soviet";"epoch";"Lviv";"49.84";"24.03"
"725";"Mahachkala";"Soviet";"epoch";"Mahachkala";"42.98333333";"47.48333333"
"726";"Mikolaiv";"Soviet";"epoch";"Mikolaiv";"49.52";"23.98"
"727";"Minsk";"Soviet";"epoch";"Minsk";"53.9";"27.57"
"728";"Mogilev";"Soviet";"epoch";"Mogilev";"53.91";"30.34"
"729";"Murmansk";"Soviet";"epoch";"Murmansk";"68.96666667";"33.08333333"
"673";"Nizhni-Novgorod";"Soviet";"epoch";"Nizhni-Novgorod";"56.31666667";"44"
"732";"Nizhni-Tagil";"Soviet";"epoch";"Nizhni-Tagil";"57.91666667";"59.96666667"
"733";"Novokuznetsk";"Soviet";"epoch";"Novokuznetsk";"53.75";"87.11666667"
"734";"Novomoskovsk";"Soviet";"epoch";"Novomoskovsk";"54.03333333";"38.26666667"
"674";"Novosibirsk";"Soviet";"epoch";"Novosibirsk";"55.03333333";"82.91666667"
"675";"Odesa";"Soviet";"epoch";"Odesa";"46.47";"30.73"
"738";"Omsk";"Soviet";"epoch";"Omsk";"54.96666667";"73.38333333"
"739";"Orel";"Soviet";"epoch";"Orel";"52.96666667";"36.08333333"
"740";"Penza";"Soviet";"epoch";"Penza";"53.2";"45.01666667"
"741";"Perm";"Soviet";"epoch";"Perm";"58";"56.25"
"742";"Poltava";"Soviet";"epoch";"Poltava";"49.58";"34.57"
"743";"Pyatigorsk";"Soviet";"epoch";"Pyatigorsk";"44.03333333";"43.05"
"676";"Riga";"Soviet";"epoch";"Riga";"56.95";"24.1"
"745";"Rostov-on-Don";"Soviet";"epoch";"Rostov-on-Don";"47.23333333";"39.71666667"
"746";"Ryazan";"Soviet";"epoch";"Ryazan";"54.61666667";"39.71666667"
"747";"Samara";"Soviet";"epoch";"Samara";"53.18333333";"50.11666667"
"748";"Samarkand";"Soviet";"epoch";"Samarkand";"39.65";"66.96"
"678";"Saratov";"Soviet";"epoch";"Saratov";"51.53333333";"46"
"750";"Sevastopol";"Soviet";"epoch";"Sevastopol";"44.6";"33.53"
"752";"Tallinn";"Soviet";"epoch";"Tallinn";"59.43333333";"24.75"
"753";"Tambov";"Soviet";"epoch";"Tambov";"52.71666667";"41.43333333"
"755";"Tashkent";"Soviet";"epoch";"Tashkent";"41.32";"69.25"
"756";"Tbilisi";"Soviet";"epoch";"Tbilisi";"41.73";"44.79"
"757";"Tiraspol";"Soviet";"epoch";"Tiraspol";"46.84";"29.64"
"758";"Toljatti";"Soviet";"epoch";"Toljatti";"53.51666667";"49.41666667"
"759";"Tomsk";"Soviet";"epoch";"Tomsk";"56.5";"84.96666667"
"760";"Tula";"Soviet";"epoch";"Tula";"54.2";"37.61666667"
"761";"Tver";"Soviet";"epoch";"Tver";"56.86666667";"35.9"
"762";"Ufa";"Soviet";"epoch";"Ufa";"54.73333333";"55.96666667"
"763";"Ulianovsk";"Soviet";"epoch";"Ulianovsk";"54.31666667";"48.38333333"
"764";"Vilnius";"Soviet";"epoch";"Vilnius";"54.68";"25.32"
"766";"Vitebsk";"Soviet";"epoch";"Vitebsk";"55.19";"30.19"
"767";"Vladivostok";"Soviet";"epoch";"Vladivostok";"43.11666667";"131.9"
"768";"Volgograd";"Soviet";"epoch";"Volgograd";"48.7";"44.48333333"
"770";"Vologda";"Soviet";"epoch";"Vologda";"59.21666667";"39.9"
"771";"Voronezh";"Soviet";"epoch";"Voronezh";"51.66666667";"39.18333333"
"772";"Yaroslavl";"Soviet";"epoch";"Yaroslavl";"57.63333333";"39.86666667"
"773";"Zaporizhzha";"Soviet";"epoch";"Zaporizhzha";"47.82";"35.18"
